GLOBALSTAR M024 [-]     
1 25883U 99043A   24071.50917765  .00000024  00000+0  31616-2 0  9999
2 25883  52.0061 344.5758 0002100  64.0525 111.6578 11.10157366 63473
GLOBALSTAR M027 [-]     
1 25884U 99043B   24071.25257016 -.00000079  00000+0 -59916-3 0  9994
2 25884  52.0229  50.0184 0021287 324.3592  35.5779 11.04367607 90094
GLOBALSTAR M054 [-]     
1 25885U 99043C   24071.79705286 -.00000066  00000+0  12795-3 0  9990
2 25885  52.0111 253.7041 0005556 100.1705 272.8045 11.39206380 66684
GLOBALSTAR M053 [-]     
1 25886U 99043D   24071.52599771 -.00000085  00000+0 -46757-3 0  9999
2 25886  51.9968 175.7802 0003115  30.1082 342.1508 11.27653937 67250
GLOBALSTAR M058 [-]     
1 25907U 99049A   24071.80774648 -.00000067  00000+0  23007-3 0  9990
2 25907  51.9920 263.8252 0003208 101.6082 258.5113 11.93178894 97552
GLOBALSTAR M050 [-]     
1 25908U 99049B   24071.40896509 -.00000034  00000+0  61358-3 0  9993
2 25908  52.0000 307.1403 0008760 185.0333 353.9531 12.07430138 92284
GLOBALSTAR M033 [-]     
1 25909U 99049C   24071.64000781 -.00000113  00000+0 -20084-3 0  9999
2 25909  51.9894 210.2857 0012004  43.6991 316.4805 12.20269052479272
GLOBALSTAR M055 [-]     
1 25910U 99049D   24071.16364365 -.00000089  00000+0  47560-4 0  9999
2 25910  51.9997 244.9062 0006182 246.2977 113.7226 12.29396801111332
